{
  "links" : {
    "next" : "https://api.nasa.gov/neo/rest/v1/feed?start_date=2004-08-16&end_date=2004-08-16&detailed=true&api_key=t0TVs3DtDT2H8Oy2Zy8m2eVrNsAVKAexjcZXUckd",
    "prev" : "https://api.nasa.gov/neo/rest/v1/feed?start_date=2004-08-14&end_date=2004-08-14&detailed=true&api_key=t0TVs3DtDT2H8Oy2Zy8m2eVrNsAVKAexjcZXUckd",
    "self" : "https://api.nasa.gov/neo/rest/v1/feed?start_date=2004-08-15&end_date=2004-08-15&detailed=true&api_key=t0TVs3DtDT2H8Oy2Zy8m2eVrNsAVKAexjcZXUckd"
  },
  "element_count" : 5,
  "near_earth_objects" : {
    "2004-08-15" : [ {
      "links" : {
        "self" : "https://api.nasa.gov/neo/rest/v1/neo/3724056?api_key=t0TVs3DtDT2H8Oy2Zy8m2eVrNsAVKAexjcZXUckd"
      },
      "neo_reference_id" : "3724056",
      "name" : "(2015 NG13)",
      "nasa_jpl_url" : "http://ssd.jpl.nasa.gov/sbdb.cgi?sstr=3724056",
      "absolute_magnitude_h" : 24.9,
      "estimated_diameter" : {
        "kilometers" : {
          "estimated_diameter_min" : 0.0278326768,
          "estimated_diameter_max" : 0.0622357573
        },
        "meters" : {
          "estimated_diameter_min" : 27.8326768072,
          "estimated_diameter_max" : 62.2357573367
        },
        "miles" : {
          "estimated_diameter_min" : 0.0172944182,
          "estimated_diameter_max" : 0.0386714948
        },
        "feet" : {
          "estimated_diameter_min" : 91.3145593761,
          "estimated_diameter_max" : 204.1855621004
        }
      },
      "is_potentially_hazardous_asteroid" : false,
      "close_approach_data" : [ {
        "close_approach_date" : "2004-08-15",
        "epoch_date_close_approach" : 1092553200000,
        "relative_velocity" : {
          "kilometers_per_second" : "14.8460364127",
          "kilometers_per_hour" : "53445.7310857063",
          "miles_per_hour" : "33209.0988515601"
        },
        "miss_distance" : {
          "astronomical" : "0.3394706004",
          "lunar" : "132.0540618896",
          "kilometers" : "50784080",
          "miles" : "31555764"
        },
        "orbiting_body" : "Earth"
      } ],
      "orbital_data" : {
        "orbit_id" : "5",
        "orbit_determination_date" : "2017-04-06 08:32:49",
        "orbit_uncertainty" : "7",
        "minimum_orbit_intersection" : ".00645601",
        "jupiter_tisserand_invariant" : "6.864",
        "epoch_osculation" : "2458000.5",
        "eccentricity" : ".2251090923285536",
        "semi_major_axis" : ".8562169604506201",
        "inclination" : "5.325985530942122",
        "ascending_node_longitude" : "272.3288719676772",
        "orbital_period" : "289.3837674638634",
        "perihelion_distance" : ".6634747376472679",
        "perihelion_argument" : "202.5670802522125",
        "aphelion_distance" : "1.048959183253972",
        "perihelion_time" : "2457949.233673471022",
        "mean_anomaly" : "63.77647824609498",
        "mean_motion" : "1.244022783845175",
        "equinox" : "J2000"
      }
    }, {
      "links" : {
        "self" : "https://api.nasa.gov/neo/rest/v1/neo/3249980?api_key=t0TVs3DtDT2H8Oy2Zy8m2eVrNsAVKAexjcZXUckd"
      },
      "neo_reference_id" : "3249980",
      "name" : "(2004 QB3)",
      "nasa_jpl_url" : "http://ssd.jpl.nasa.gov/sbdb.cgi?sstr=3249980",
      "absolute_magnitude_h" : 24.4,
      "estimated_diameter" : {
        "kilometers" : {
          "estimated_diameter_min" : 0.0350392641,
          "estimated_diameter_max" : 0.0783501764
        },
        "meters" : {
          "estimated_diameter_min" : 35.0392641108,
          "estimated_diameter_max" : 78.3501764334
        },
        "miles" : {
          "estimated_diameter_min" : 0.0217723826,
          "estimated_diameter_max" : 0.0486845275
        },
        "feet" : {
          "estimated_diameter_min" : 114.9582192654,
          "estimated_diameter_max" : 257.0543928497
        }
      },
      "is_potentially_hazardous_asteroid" : false,
      "close_approach_data" : [ {
        "close_approach_date" : "2004-08-15",
        "epoch_date_close_approach" : 1092553200000,
        "relative_velocity" : {
          "kilometers_per_second" : "13.2622330439",
          "kilometers_per_hour" : "47744.0389580976",
          "miles_per_hour" : "29666.2890959357"
        },
        "miss_distance" : {
          "astronomical" : "0.0448861436",
          "lunar" : "17.4607086182",
          "kilometers" : "6714871.5",
          "miles" : "4172427.5"
        },
        "orbiting_body" : "Earth"
      } ],
      "orbital_data" : {
        "orbit_id" : "8",
        "orbit_determination_date" : "2017-04-06 09:12:27",
        "orbit_uncertainty" : "8",
        "minimum_orbit_intersection" : ".0200819",
        "jupiter_tisserand_invariant" : "6.228",
        "epoch_osculation" : "2453240.5",
        "eccentricity" : ".4171001370559002",
        "semi_major_axis" : ".9503319508337005",
        "inclination" : "14.35327487715154",
        "ascending_node_longitude" : "327.2087241256352",
        "orbital_period" : "338.3852491515063",
        "perihelion_distance" : ".553948363892363",
        "perihelion_argument" : "232.181462424406",
        "aphelion_distance" : "1.346715537775038",
        "perihelion_time" : "2453158.577153762393",
        "mean_anomaly" : "87.15576320034528",
        "mean_motion" : "1.063876161572327",
        "equinox" : "J2000"
      }
    } ]
  }
}